IRIDIUM 124             
1 42810U 17039H   26117.09426067  .00000094  00000+0  21898-4 0  9990
2 42810  86.4456 311.7386 0002220  89.1854 270.9602 14.43281294467742
IRIDIUM 128             
1 42811U 17039J   26117.20836505  .00000009  00000+0 -38765-5 0  9995
2 42811  86.3987  46.4537 0002273  80.2247 279.9206 14.34217472462670
IRIDIUM 121             
1 42812U 17039K   26117.16690517  .00000271  00000+0  89730-4 0  9999
2 42812  86.4015  14.9924 0002221  82.3092 277.8356 14.34220088462511
IRIDIUM 133             
1 42955U 17061A   26117.17030944  .00000008  00000+0 -41668-5 0  9993
2 42955  86.3988  46.5860 0002142  84.9536 275.1905 14.34217453447460
IRIDIUM 100             
1 42956U 17061B   26117.09419750  .00000099  00000+0  28225-4 0  9993
2 42956  86.3987  46.5374 0002277  84.5958 275.5497 14.34217478447459
IRIDIUM 122             
1 42957U 17061C   26117.20202221  .00000125  00000+0  37692-4 0  9998
2 42957  86.3989  46.4924 0002284  86.9667 273.1790 14.34218145447477
IRIDIUM 129             
1 42958U 17061D   26116.87854956 -.00000040  00000+0 -21443-4 0  9994
2 42958  86.3988  46.6943 0001828  86.5497 273.5907 14.34217163447440
IRIDIUM 119             
1 42959U 17061E   26117.19567984 -.00000001  00000+0 -75594-5 0  9997
2 42959  86.3987  46.5574 0002119  88.4164 271.7275 14.34217414447509
IRIDIUM 107             
1 42960U 17061F   26117.07517119 -.00000124  00000+0 -51385-4 0  9998
2 42960  86.3989  46.6288 0002346  87.1831 272.9633 14.34217177447490
IRIDIUM 132             
1 42961U 17061G   26117.08151309  .00000029  00000+0  31502-5 0  9997
2 42961  86.3990  46.6056 0002260  85.1877 274.9577 14.34217776447493
IRIDIUM 136             
1 42962U 17061H   26117.18299490 -.00000009  00000+0 -10110-4 0  9994
2 42962  86.3988  46.5700 0002172  87.4622 272.6822 14.34217388447522
IRIDIUM 139             
1 42963U 17061J   26117.18933714  .00000020  00000+0  18371-6 0  9999
2 42963  86.3990  46.6282 0002345  84.0290 276.1173 14.34217742447531
IRIDIUM 125             
1 42964U 17061K   26117.17665231 -.00000020  00000+0 -14146-4 0  9991
2 42964  86.3990  46.6938 0002288  98.0055 262.1400 14.34217347447540
IRIDIUM 135             
1 43070U 17083A   26117.15077715  .00000070  00000+0  18040-4 0  9996
2 43070  86.3986 343.3587 0002173  86.3387 273.8057 14.34218107436834
IRIDIUM 138             
1 43071U 17083B   26117.17614725  .00000013  00000+0 -24934-5 0  9995
2 43071  86.3991 343.0355 0001874  95.2268 264.9141 14.34217630436829
IRIDIUM 116             
1 43072U 17083C   26117.07467089  .00000266  00000+0  87941-4 0  9999
2 43072  86.3984 343.3770 0002342  81.0032 279.1428 14.34211030436845
IRIDIUM 130             
1 43073U 17083D   26117.18249097 -.00000019  00000+0 -13882-4 0  9990
2 43073  86.3988 343.6019 0002312  85.0346 275.1113 14.34217450436803
