[{"OBJECT_NAME":"IRIDIUM 124","OBJECT_ID":"2017-039H","EPOCH":"2026-04-27T02:15:44.121888","MEAN_MOTION":14.43281294,"ECCENTRICITY":0.000222,"INCLINATION":86.4456,"RA_OF_ASC_NODE":311.7386,"ARG_OF_PERICENTER":89.1854,"MEAN_ANOMALY":270.9602,"EPHEMERIS_TYPE":0,"CLASSIFICATION_TYPE":"U","NORAD_CAT_ID":42810,"ELEMENT_SET_NO":999,"REV_AT_EPOCH":46774,"BSTAR":2.1898e-5,"MEAN_MOTION_DOT":9.4e-7,"MEAN_MOTION_DDOT":0},{"OBJECT_NAME":"IRIDIUM 128","OBJECT_ID":"2017-039J","EPOCH":"2026-04-27T05:00:02.740320","MEAN_MOTION":14.34217472,"ECCENTRICITY":0.0002273,"INCLINATION":86.3987,"RA_OF_ASC_NODE":46.4537,"ARG_OF_PERICENTER":80.2247,"MEAN_ANOMALY":279.9206,"EPHEMERIS_TYPE":0,"CLASSIFICATION_TYPE":"U","NORAD_CAT_ID":42811,"ELEMENT_SET_NO":999,"REV_AT_EPOCH":46267,"BSTAR":-3.8765e-6,"MEAN_MOTION_DOT":9.0e-8,"MEAN_MOTION_DDOT":0},{"OBJECT_NAME":"IRIDIUM 121","OBJECT_ID":"2017-039K","EPOCH":"2026-04-27T04:00:20.606688","MEAN_MOTION":14.34220088,"ECCENTRICITY":0.0002221,"INCLINATION":86.4015,"RA_OF_ASC_NODE":14.9924,"ARG_OF_PERICENTER":82.3092,"MEAN_ANOMALY":277.8356,"EPHEMERIS_TYPE":0,"CLASSIFICATION_TYPE":"U","NORAD_CAT_ID":42812,"ELEMENT_SET_NO":999,"REV_AT_EPOCH":46251,"BSTAR":8.973e-5,"MEAN_MOTION_DOT":2.71e-6,"MEAN_MOTION_DDOT":0},{"OBJECT_NAME":"IRIDIUM 133","OBJECT_ID":"2017-061A","EPOCH":"2026-04-27T04:05:14.735616","MEAN_MOTION":14.34217453,"ECCENTRICITY":0.0002142,"INCLINATION":86.3988,"RA_OF_ASC_NODE":46.586,"ARG_OF_PERICENTER":84.9536,"MEAN_ANOMALY":275.1905,"EPHEMERIS_TYPE":0,"CLASSIFICATION_TYPE":"U","NORAD_CAT_ID":42955,"ELEMENT_SET_NO":999,"REV_AT_EPOCH":44746,"BSTAR":-4.1668e-6,"MEAN_MOTION_DOT":8.0e-8,"MEAN_MOTION_DDOT":0},{"OBJECT_NAME":"IRIDIUM 100","OBJECT_ID":"2017-061B","EPOCH":"2026-04-27T02:15:38.664000","MEAN_MOTION":14.34217478,"ECCENTRICITY":0.0002277,"INCLINATION":86.3987,"RA_OF_ASC_NODE":46.5374,"ARG_OF_PERICENTER":84.5958,"MEAN_ANOMALY":275.5497,"EPHEMERIS_TYPE":0,"CLASSIFICATION_TYPE":"U","NORAD_CAT_ID":42956,"ELEMENT_SET_NO":999,"REV_AT_EPOCH":44745,"BSTAR":2.8225e-5,"MEAN_MOTION_DOT":9.9e-7,"MEAN_MOTION_DDOT":0},{"OBJECT_NAME":"IRIDIUM 122","OBJECT_ID":"2017-061C","EPOCH":"2026-04-27T04:50:54.718944","MEAN_MOTION":14.34218145,"ECCENTRICITY":0.0002284,"INCLINATION":86.3989,"RA_OF_ASC_NODE":46.4924,"ARG_OF_PERICENTER":86.9667,"MEAN_ANOMALY":273.179,"EPHEMERIS_TYPE":0,"CLASSIFICATION_TYPE":"U","NORAD_CAT_ID":42957,"ELEMENT_SET_NO":999,"REV_AT_EPOCH":44747,"BSTAR":3.7692e-5,"MEAN_MOTION_DOT":1.25e-6,"MEAN_MOTION_DDOT":0},{"OBJECT_NAME":"IRIDIUM 129","OBJECT_ID":"2017-061D","EPOCH":"2026-04-26T21:05:06.681984","MEAN_MOTION":14.34217163,"ECCENTRICITY":0.0001828,"INCLINATION":86.3988,"RA_OF_ASC_NODE":46.6943,"ARG_OF_PERICENTER":86.5497,"MEAN_ANOMALY":273.5907,"EPHEMERIS_TYPE":0,"CLASSIFICATION_TYPE":"U","NORAD_CAT_ID":42958,"ELEMENT_SET_NO":999,"REV_AT_EPOCH":44744,"BSTAR":-2.1443e-5,"MEAN_MOTION_DOT":-4.0e-7,"MEAN_MOTION_DDOT":0},{"OBJECT_NAME":"IRIDIUM 119","OBJECT_ID":"2017-061E","EPOCH":"2026-04-27T04:41:46.738176","MEAN_MOTION":14.34217414,"ECCENTRICITY":0.0002119,"INCLINATION":86.3987,"RA_OF_ASC_NODE":46.5574,"ARG_OF_PERICENTER":88.4164,"MEAN_ANOMALY":271.7275,"EPHEMERIS_TYPE":0,"CLASSIFICATION_TYPE":"U","NORAD_CAT_ID":42959,"ELEMENT_SET_NO":999,"REV_AT_EPOCH":44750,"BSTAR":-7.5594e-6,"MEAN_MOTION_DOT":-1.0e-8,"MEAN_MOTION_DDOT":0},{"OBJECT_NAME":"IRIDIUM 107","OBJECT_ID":"2017-061F","EPOCH":"2026-04-27T01:48:14.790816","MEAN_MOTION":14.34217177,"ECCENTRICITY":0.0002346,"INCLINATION":86.3989,"RA_OF_ASC_NODE":46.6288,"ARG_OF_PERICENTER":87.1831,"MEAN_ANOMALY":272.9633,"EPHEMERIS_TYPE":0,"CLASSIFICATION_TYPE":"U","NORAD_CAT_ID":42960,"ELEMENT_SET_NO":999,"REV_AT_EPOCH":44749,"BSTAR":-5.1385e-5,"MEAN_MOTION_DOT":-1.24e-6,"MEAN_MOTION_DDOT":0},{"OBJECT_NAME":"IRIDIUM 132","OBJECT_ID":"2017-061G","EPOCH":"2026-04-27T01:57:22.730976","MEAN_MOTION":14.34217776,"ECCENTRICITY":0.000226,"INCLINATION":86.399,"RA_OF_ASC_NODE":46.6056,"ARG_OF_PERICENTER":85.1877,"MEAN_ANOMALY":274.9577,"EPHEMERIS_TYPE":0,"CLASSIFICATION_TYPE":"U","NORAD_CAT_ID":42961,"ELEMENT_SET_NO":999,"REV_AT_EPOCH":44749,"BSTAR":3.1502e-6,"MEAN_MOTION_DOT":2.9e-7,"MEAN_MOTION_DDOT":0},{"OBJECT_NAME":"IRIDIUM 136","OBJECT_ID":"2017-061H","EPOCH":"2026-04-27T04:23:30.759360","MEAN_MOTION":14.34217388,"ECCENTRICITY":0.0002172,"INCLINATION":86.3988,"RA_OF_ASC_NODE":46.57,"ARG_OF_PERICENTER":87.4622,"MEAN_ANOMALY":272.6822,"EPHEMERIS_TYPE":0,"CLASSIFICATION_TYPE":"U","NORAD_CAT_ID":42962,"ELEMENT_SET_NO":999,"REV_AT_EPOCH":44752,"BSTAR":-1.011e-5,"MEAN_MOTION_DOT":-9.0e-8,"MEAN_MOTION_DDOT":0},{"OBJECT_NAME":"IRIDIUM 139","OBJECT_ID":"2017-061J","EPOCH":"2026-04-27T04:32:38.728896","MEAN_MOTION":14.34217742,"ECCENTRICITY":0.0002345,"INCLINATION":86.399,"RA_OF_ASC_NODE":46.6282,"ARG_OF_PERICENTER":84.029,"MEAN_ANOMALY":276.1173,"EPHEMERIS_TYPE":0,"CLASSIFICATION_TYPE":"U","NORAD_CAT_ID":42963,"ELEMENT_SET_NO":999,"REV_AT_EPOCH":44753,"BSTAR":1.8371e-7,"MEAN_MOTION_DOT":2.0e-7,"MEAN_MOTION_DDOT":0},{"OBJECT_NAME":"IRIDIUM 125","OBJECT_ID":"2017-061K","EPOCH":"2026-04-27T04:14:22.759584","MEAN_MOTION":14.34217347,"ECCENTRICITY":0.0002288,"INCLINATION":86.399,"RA_OF_ASC_NODE":46.6938,"ARG_OF_PERICENTER":98.0055,"MEAN_ANOMALY":262.14,"EPHEMERIS_TYPE":0,"CLASSIFICATION_TYPE":"U","NORAD_CAT_ID":42964,"ELEMENT_SET_NO":999,"REV_AT_EPOCH":44754,"BSTAR":-1.4146e-5,"MEAN_MOTION_DOT":-2.0e-7,"MEAN_MOTION_DDOT":0},{"OBJECT_NAME":"IRIDIUM 135","OBJECT_ID":"2017-083A","EPOCH":"2026-04-27T03:37:07.145760","MEAN_MOTION":14.34218107,"ECCENTRICITY":0.0002173,"INCLINATION":86.3986,"RA_OF_ASC_NODE":343.3587,"ARG_OF_PERICENTER":86.3387,"MEAN_ANOMALY":273.8057,"EPHEMERIS_TYPE":0,"CLASSIFICATION_TYPE":"U","NORAD_CAT_ID":43070,"ELEMENT_SET_NO":999,"REV_AT_EPOCH":43683,"BSTAR":1.804e-5,"MEAN_MOTION_DOT":7.0e-7,"MEAN_MOTION_DDOT":0},{"OBJECT_NAME":"IRIDIUM 138","OBJECT_ID":"2017-083B","EPOCH":"2026-04-27T04:13:39.122400","MEAN_MOTION":14.3421763,"ECCENTRICITY":0.0001874,"INCLINATION":86.3991,"RA_OF_ASC_NODE":343.0355,"ARG_OF_PERICENTER":95.2268,"MEAN_ANOMALY":264.9141,"EPHEMERIS_TYPE":0,"CLASSIFICATION_TYPE":"U","NORAD_CAT_ID":43071,"ELEMENT_SET_NO":999,"REV_AT_EPOCH":43682,"BSTAR":-2.4934e-6,"MEAN_MOTION_DOT":1.3e-7,"MEAN_MOTION_DDOT":0},{"OBJECT_NAME":"IRIDIUM 116","OBJECT_ID":"2017-083C","EPOCH":"2026-04-27T01:47:31.564896","MEAN_MOTION":14.3421103,"ECCENTRICITY":0.0002342,"INCLINATION":86.3984,"RA_OF_ASC_NODE":343.377,"ARG_OF_PERICENTER":81.0032,"MEAN_ANOMALY":279.1428,"EPHEMERIS_TYPE":0,"CLASSIFICATION_TYPE":"U","NORAD_CAT_ID":43072,"ELEMENT_SET_NO":999,"REV_AT_EPOCH":43684,"BSTAR":8.7941e-5,"MEAN_MOTION_DOT":2.66e-6,"MEAN_MOTION_DDOT":0},{"OBJECT_NAME":"IRIDIUM 130","OBJECT_ID":"2017-083D","EPOCH":"2026-04-27T04:22:47.219808","MEAN_MOTION":14.3421745,"ECCENTRICITY":0.0002312,"INCLINATION":86.3988,"RA_OF_ASC_NODE":343.6019,"ARG_OF_PERICENTER":85.0346,"MEAN_ANOMALY":275.1113,"EPHEMERIS_TYPE":0,"CLASSIFICATION_TYPE":"U","NORAD_CAT_ID":43073,"ELEMENT_SET_NO":999,"REV_AT_EPOCH":43680,"BSTAR":-1.3882e-5,"MEAN_MOTION_DOT":-1.9e-7,"MEAN_MOTION_DDOT":0}]
